name,description,address,phone,website,opening_hours,source_link
"A cosy, all-vegan Peckham caf√©, with bonus late night fun.","A cosy, all-vegan Peckham caf√©, with bonus late night fun.","135a Rye Lane, Peckham, SE15 4ST",,,"Mon-Thu 8am-4pm, Fri 8am-6pm, Sat 9am-6pm, Sun 9am-4pm (and later for events). Read review 2. Pavilion Caf√© British Victoria Park 5 out of 5 stars Recommended ¬© Alys Tomlinson",https://www.timeout.com/profile/leonie-cooper
A picturesque spot in Victoria Park with a Sri Lankan-influenced menu that punches high.,A picturesque spot in Victoria Park with a Sri Lankan-influenced menu that punches high.,"Victoria Park, E9 7DE",,,"Mon-Fri 7am-4pm, Sat-Sun 7am-6pm. Read review Advertising 3. St John at the London Review Bookshop Caf√©s Bloomsbury price 2 of 4 4 out of 5 stars Recommended Image: Matthew Hague What is it: A casual Bloomsbury bakehouse outpost of the acclaimed restaurant. Why we love it: Taking over the London Review Bookshop cafe in the shadow of the British Museum, this iteration of St John is by far its most lowkey, with just 10 tables and a menu primarily focussing on pastries and joyfully utilitarian doorstop sandwiches. Sweet-toothed punters will be pleased as the whole of the St John Bakery is on offer, with all manner of pastries, Eccles cakes, madeleines , and doughnuts, as well as warm savoury bakes (ham or courgette tart, pig cheek or potato and Wigmore cheese pie) and a short but salutary wine list. And of course there is coffee. Order this: St John‚Äôs bake-to-order madeleines are renowned; with a cup of something warming and a book from next door, we can‚Äôt think of a better way to spend an hour. Address: 16 Bury Place, Bloomsbury, WC1A 2JL. Opening hours: Mon-Sat 8am-6.30pm, Sun 12-6pm. Read review 4. Juliet's Quality Foods Caf√©s Tooting price 1 of 4 Recommended",https://www.timeout.com/profile/leonie-cooper
"Adventurous brunching in Tooting, for when avo and eggs just won‚Äôt cut it.","Adventurous brunching in Tooting, for when avo and eggs just won‚Äôt cut it.","10 Mitcham Road, Tooting, SW17 9NG.",,,"Mon-Fri 9am-3pm, Sat-Sun 9am-4pm. Read more Advertising 5. Bolland & Crust 5 out of 5 stars Recommended Andre Ainsworth What is it: Spit-roast and meat-heavy delights at a hidden¬†Wood Green gem. Why we love it: Bolland & Crust, located in an industrial park, might not look like much but its food means business. Having operated since 2009 as caterers, this north London outpost is their first sit-down eatery, but with an MO centred around bbq and spit-roast treats (overseen by the friendly hog painted on its wall). They know exactly what they‚Äôre good at: namely, no nonsense breakfast baps and fry ups, and an exciting lunch menu that‚Äôs already luring in locals and those from far beyond. Expect big flavours, like pigs head croquettes and chimichurri-laden bavette steak; on Sundays they roast, with belly pork, lamb shoulder and bbq cauliflower all on offer. Order this: The croquettes with tangy sauce gribiche are a menu staple, as are their super crispy, layered confit potato cakes. Address: Crawley Road Studios, 38 Crawley Road, Wood Green, N22 6AG Opening hours: Wed-Thu 10am-3pm, Fri 9am-3pm and 5-9pm, Sat 9am-4pm, Sun 10am-4pm. 6. Brunswick East Coffeeshops Dalston 4 out of 5 stars Recommended",https://www.timeout.com/profile/leonie-cooper
"An Aussie-owned gem, with a menu informed by the produce of its own rooftop Sky Farm.","An Aussie-owned gem, with a menu informed by the produce of its own rooftop Sky Farm.","Unit 3D Stamford Works, Gillett Street, Dalston, N16 8JH",,,"Mon-Fri 8.30am-4pm, Sat-Sun 9am-5pm. Read review Advertising 7. Baudry Greene 4 out of 5 stars Recommended Baudry Greene",https://www.timeout.com/profile/leonie-cooper
"An all-day caf√© and bar, with top tier figures behind both sides.","An all-day caf√© and bar, with top tier figures behind both sides.","20 Endell Street, Covent Garden, WC2H 9BD.",,,"Mon-Thu 8am-11pm, Fri 8am-11.30pm, Sat 9am-11.30pm. 8. Milk Caf√©s Balham 4 out of 5 stars Recommended Mariell Lind Hansen",https://www.timeout.com/profile/leonie-cooper
Balham‚Äôs most achingly fashionable breakfast and brunch spot.,Balham‚Äôs most achingly fashionable breakfast and brunch spot.,"18-20 Bedford Hill, Balham, SW12 9RG.",,,"Mon-Thu 8am-3pm, Fri 8am-3.30pm, Sat 8am-4pm, Sun 9am-4pm. Read review Advertising 9. Gecko Coffeehouse Caf√©s Bethnal Green Recommended Photograph: Holly Munks",https://www.timeout.com/profile/leonie-cooper
An unpretentious Bethnal Green caf√© with,"An unpretentious Bethnal Green caf√© with
a rare balance between quality and heart.","49 Bethnal Green Road, Bethnal Green, E1 6LA.",,,"Mon-Fri 9am-5pm, Sat-Sun 9am-6pm. Holly Munks Contributing writer Read more 10. Fair Shot Caf√©s Covent Garden 4 out of 5 stars Recommended Fair Shot",https://www.timeout.com/profile/leonie-cooper
"A social enterprise caf√©, bringing good coffee and good vibes to Covent Garden.","A social enterprise caf√©, bringing good coffee and good vibes to Covent Garden.","3 Slingsby Place, Covent Garden, WC2E 9AB.",,,"Mon-Fri 8am-6pm, Sat 9am-6.30pm, Sun 12pm-6pm. Read review Advertising 11. The Fields Beneath Caf√©s Kentish Town price 1 of 4 4 out of 5 stars Recommended",https://www.timeout.com/profile/leonie-cooper
"A tiny neighbourhood hangout in Kentish Town, with a fully plant-based menu.","A tiny neighbourhood hangout in Kentish Town, with a fully plant-based menu.","52a Prince of Wales Road, Kentish Town, NW5 3LN.",,,"Mon-Fri 7.30pm-4pm, Sat 8am-5pm, Sun 8.30am-4pm. Read review 12. The Copper Tea Tea rooms New Cross 4 out of 5 stars Recommended Kyoko Sato",https://www.timeout.com/profile/leonie-cooper
Nan‚Äôs living room vibes in a quirky Lewisham tearoom.,"Nan‚Äôs living room vibes in a quirky Lewisham tearoom.
Why we love it
: The Copper Tea‚Äôs exterior
may say ‚ÄòNew Cross Appliance Centre‚Äô, but rest assured there‚Äôs a tiny little caf√© serving banging breakfasts and a
strong cuppa in quirky china
behind those quaint floral curtains. Head in and find an oh-so-cute space with mismatched picture frames, plenty of lace and the general vibe of days gone by. The menu, meanwhile, brings The Copper Tea up to date, combining British and Japanese dishes from eggs and soldiers to bento boxes.","Ground Floor, 137 Lewisham Way, Lewisham, SE14 6QF.",,,"Mon, Wed-Thu 10.30am-4pm, Tues, Fri 11am-4pm, Sat-Sun 10.30am-3.30pm. Read review Advertising 13. Ace Caf√© Things to do Event spaces Wembley 4 out of 5 stars Recommended",https://www.timeout.com/profile/leonie-cooper
"A legendary biker hang-out, dating back to 1938.","A legendary biker hang-out, dating back to 1938.","Ace Corner, North Circular Road, Wembley, NW10 7UD.",,,"Sat-Thu 8.30am-9.30pm, Fri 8.30am-6pm. Read review 14. Burnt Caf√©s Shepherd‚Äôs Bush 4 out of 5 stars Recommended Emma Louise Pudge What is it: Innovative offerings and outdoor seating in Shepherd‚Äôs Bush. Why we love it: With bright, minimal interiors and outdoor seating in its rear garden (and a front bench too!), Burnt makes the most of its relatively teeny space. But even more impressive than its feng shui is its menu, which spices up the classic brunch offering with cheeky twists like a salt beek, sauerkraut and emmental croque monsieur, or a salmon and kimchi omelette. On Fridays, they open for dinner, serving a rotating menu of seasonal small plates, while Burnt imports its beans from east London favourites Climpson & Sons, and pastries from the Dusty Knuckle. Order this: Why go for boring old eggs and toast when you could opt for a brunch-time spiced chicken schnitzel caesar, served with a fried egg and parmesan. Address: 163 Askew Road, Shepherd‚Äôs Bush, W12 9AU. Opening hours: Mon-Sat 8am-4pm, Sun 9am-4pm, Fridays only 6pm - 10pm. Read review Advertising 15. The Elder Press Cafe Hammersmith 4 out of 5 stars Recommended Elder Press Cafe What is it: A spacious spot for leisurely lunching on the Hammersmith riverside. Why we love it: Being slightly out of the way affords this riverside caf√© a breezy two floors and a courtyard, where buckets of natural light ripple through some very tasteful Crittall-style windows and a dusky pink, plant-filled interior. Food here is as important as the coffee (which comes from Ozone). The ever-rotating, totally seasonal menu ranges from kimchi fried rice to Turkish eggs with labneh, plus freshly-baked daily pastries. This is a spot where you can easily whittle away a few hours, just be warned: you‚Äôll be surrounded by what sometimes feels like every labrador and their yoga pants-clad owner in west London. Order this: Elder Press‚Äô signature brunch will tick all your nutritional boxes, with hot smoked salmon, soft boiled egg, pickled veg, rye bread and more. Address: 3 South Black Lion Lane, Hammersmith, W6 9TJ. Opening hours: Mon-Fri 8.30am-5pm, Sat-Sun 9am-5pm. Read review 16. Cafe Palestina Caf√©s Kentish Town price 1 of 4 4 out of 5 stars Recommended What is it: A social enterprise and neighbourhood cafe selling Palestinian fare and produce. Why we love it: Set up in 2017 as a way to promote and support Palestinian culture and¬†community, there‚Äôs no better time to take a trip to Caf√© Palestina. They sell crafts (pottery, soap, textiles) and produce (stock up on their olive oil), while at lunch they offer a full menu of traditional mezze, soups, wraps and cakes. From Wednesday to Friday, meanwhile, they also host regular evening events: Wednesday is a Palestinian discussion group, Thursday is vegan night, while on Fridays they serve up a three-course Palestinian dinner as part of a supper club. Order this: A sharer for two, their Hearty Feast does what it says on the tin, with hummus, muttabal, vine leaves, grilled halloumi and more. Address: 53 Fortess Road, Kentish Town, NW5 1AD. Opening hours: Tue-Sat 11am-5pm and 7pm-10pm, Sun 11am-5pm. Read review Advertising 17. Lowry & Baker Caf√©s Portobello Road price 1 of 4 4 out of 5 stars Recommended Photograph: Rob Grieg What is it: A charmingly decorated, quality caf√© on Portobello Road. Why we love it: All light wooden finish and quaint decorative touches, Lowry & Baker is the definition of a cute, west London neighbourhood caf√©. Coffee comes from Monmouth, while their menu is wider and more varied than most similar spots. Pancakes, muffins and fry-ups tick the classic brunch box, but there‚Äôs also tortilla wraps, salad bowls and a vegan massaman curry to choose from. Having recently extended their space, there‚Äôs more room to pull up a chair too. Order this: Their speciality drinks extend beyond merely a ubiquitous matcha latte. Try a ginger beetroot velvet latte or, even more intriguingly, their mermaid latte, made with butterfly pea flower. Address: 339-341 Portobello Road, Notting Hill, W10 5SA. Opening hours: Daily 8am-4.30pm. Read review Been there, done that? Think again, my friend. Sign up to our newsletter to enjoy London without spending a thing (as well as options when you're feeling flush). Enter email address D√©j√† vu! We already have this email. Try another? By entering your email address you agree to our Terms of Use and Privacy Policy and consent to receive emails from Time Out about news, events, offers and partner promotions. üôå Awesome, you're subscribed! Thanks for subscribing! Look out for your first newsletter in your inbox soon! Been there, done that? Think again, my friend. Sign up to our newsletter to enjoy London without spending a thing (as well as options when you're feeling flush). Email address D√©j√† vu! We already have this email. Try another? By entering your email address you agree to our Terms of Use and Privacy Policy and consent to receive emails from Time Out about news, events, offers and partner promotions. üôå Awesome, you're subscribed! Thanks for subscribing! Look out for your first newsletter in your inbox soon! Recommended Popular on Time Out London for less Latest news More news Elder Press Cafe Elder Press Cafe London‚Äôs best caf√©s Coffee, cake and a spot of lunch - these are the capital caffs that we actually rate Monday 20 October 2025 Share Copy Link Facebook Twitter Pinterest Email WhatsApp Edited by Leonie Cooper Food & Drink Editor, London Written by: Lisa Wright Advertising London, obviously, has a great many caf√©s, but how to choose? We ‚Äô ve got normal ones and really posh ones. Massive ones and tiny ones.¬†Ones with loads of cake, and ones with loads of sandwiches. All of them, thankfully, with coffee and tea. This list is our attempt to group together the best ones. Want to know the difference between this list and our ranking of London‚Äôs best coffee shops ? Well at these spots you can get eggs (fried, poached or scrambled) or¬†a sit-down meal with your flat white. London ‚Äô s best cafes at a glance: üå≥ Best for al fresco eats: Pavilion Cafe, Victoria Park ü•ï Best for vegans: Rons, Peckham üç≥ Best for brunch: Juliet‚Äôs Quality Foods, Tooting üõµ Best for old school energy: Ace Cafe, Wembley ü•û Best hidden gem: Bolland & Crust, Wood Green RECOMMENDED: London's best breakfasts . Leonie Cooper is Time Out London‚Äôs Food and Drink Editor. For more about how we curate, see our editorial guidelines . Been there, done that? Think again, my friend. Sign up to our newsletter to enjoy London without spending a thing (as well as options when you're feeling flush). Enter email address D√©j√† vu! We already have this email. Try another? By entering your email address you agree to our Terms of Use and Privacy Policy and consent to receive emails from Time Out about news, events, offers and partner promotions. üôå Awesome, you're subscribed! Thanks for subscribing! Look out for your first newsletter in your inbox soon! London's best caf√©s 1. Rons Shopping Peckham 5 out of 5 stars Recommended Frankie Turner",https://www.timeout.com/profile/leonie-cooper
"A cosy, all-vegan Peckham caf√©, with bonus late night fun.","A cosy, all-vegan Peckham caf√©, with bonus late night fun.","135a Rye Lane, Peckham, SE15 4ST",,,"Mon-Thu 8am-4pm, Fri 8am-6pm, Sat 9am-6pm, Sun 9am-4pm (and later for events). Read review 2. Pavilion Caf√© British Victoria Park 5 out of 5 stars Recommended ¬© Alys Tomlinson",https://www.timeout.com/profile/leonie-cooper
A picturesque spot in Victoria Park with a Sri Lankan-influenced menu that punches high.,A picturesque spot in Victoria Park with a Sri Lankan-influenced menu that punches high.,"Victoria Park, E9 7DE",,,"Mon-Fri 7am-4pm, Sat-Sun 7am-6pm. Read review Advertising 3. St John at the London Review Bookshop Caf√©s Bloomsbury price 2 of 4 4 out of 5 stars Recommended Image: Matthew Hague What is it: A casual Bloomsbury bakehouse outpost of the acclaimed restaurant. Why we love it: Taking over the London Review Bookshop cafe in the shadow of the British Museum, this iteration of St John is by far its most lowkey, with just 10 tables and a menu primarily focussing on pastries and joyfully utilitarian doorstop sandwiches. Sweet-toothed punters will be pleased as the whole of the St John Bakery is on offer, with all manner of pastries, Eccles cakes, madeleines , and doughnuts, as well as warm savoury bakes (ham or courgette tart, pig cheek or potato and Wigmore cheese pie) and a short but salutary wine list. And of course there is coffee. Order this: St John‚Äôs bake-to-order madeleines are renowned; with a cup of something warming and a book from next door, we can‚Äôt think of a better way to spend an hour. Address: 16 Bury Place, Bloomsbury, WC1A 2JL. Opening hours: Mon-Sat 8am-6.30pm, Sun 12-6pm. Read review 4. Juliet's Quality Foods Caf√©s Tooting price 1 of 4 Recommended",https://www.timeout.com/profile/leonie-cooper
"Adventurous brunching in Tooting, for when avo and eggs just won‚Äôt cut it.","Adventurous brunching in Tooting, for when avo and eggs just won‚Äôt cut it.","10 Mitcham Road, Tooting, SW17 9NG.",,,"Mon-Fri 9am-3pm, Sat-Sun 9am-4pm. Read more Advertising 5. Bolland & Crust 5 out of 5 stars Recommended Andre Ainsworth What is it: Spit-roast and meat-heavy delights at a hidden¬†Wood Green gem. Why we love it: Bolland & Crust, located in an industrial park, might not look like much but its food means business. Having operated since 2009 as caterers, this north London outpost is their first sit-down eatery, but with an MO centred around bbq and spit-roast treats (overseen by the friendly hog painted on its wall). They know exactly what they‚Äôre good at: namely, no nonsense breakfast baps and fry ups, and an exciting lunch menu that‚Äôs already luring in locals and those from far beyond. Expect big flavours, like pigs head croquettes and chimichurri-laden bavette steak; on Sundays they roast, with belly pork, lamb shoulder and bbq cauliflower all on offer. Order this: The croquettes with tangy sauce gribiche are a menu staple, as are their super crispy, layered confit potato cakes. Address: Crawley Road Studios, 38 Crawley Road, Wood Green, N22 6AG Opening hours: Wed-Thu 10am-3pm, Fri 9am-3pm and 5-9pm, Sat 9am-4pm, Sun 10am-4pm. 6. Brunswick East Coffeeshops Dalston 4 out of 5 stars Recommended",https://www.timeout.com/profile/leonie-cooper
"An Aussie-owned gem, with a menu informed by the produce of its own rooftop Sky Farm.","An Aussie-owned gem, with a menu informed by the produce of its own rooftop Sky Farm.","Unit 3D Stamford Works, Gillett Street, Dalston, N16 8JH",,,"Mon-Fri 8.30am-4pm, Sat-Sun 9am-5pm. Read review Advertising 7. Baudry Greene 4 out of 5 stars Recommended Baudry Greene",https://www.timeout.com/profile/leonie-cooper
"An all-day caf√© and bar, with top tier figures behind both sides.","An all-day caf√© and bar, with top tier figures behind both sides.","20 Endell Street, Covent Garden, WC2H 9BD.",,,"Mon-Thu 8am-11pm, Fri 8am-11.30pm, Sat 9am-11.30pm. 8. Milk Caf√©s Balham 4 out of 5 stars Recommended Mariell Lind Hansen",https://www.timeout.com/profile/leonie-cooper
Balham‚Äôs most achingly fashionable breakfast and brunch spot.,Balham‚Äôs most achingly fashionable breakfast and brunch spot.,"18-20 Bedford Hill, Balham, SW12 9RG.",,,"Mon-Thu 8am-3pm, Fri 8am-3.30pm, Sat 8am-4pm, Sun 9am-4pm. Read review Advertising 9. Gecko Coffeehouse Caf√©s Bethnal Green Recommended Photograph: Holly Munks",https://www.timeout.com/profile/leonie-cooper
An unpretentious Bethnal Green caf√© with,"An unpretentious Bethnal Green caf√© with
a rare balance between quality and heart.","49 Bethnal Green Road, Bethnal Green, E1 6LA.",,,"Mon-Fri 9am-5pm, Sat-Sun 9am-6pm. Holly Munks Contributing writer Read more 10. Fair Shot Caf√©s Covent Garden 4 out of 5 stars Recommended Fair Shot",https://www.timeout.com/profile/leonie-cooper
"A social enterprise caf√©, bringing good coffee and good vibes to Covent Garden.","A social enterprise caf√©, bringing good coffee and good vibes to Covent Garden.","3 Slingsby Place, Covent Garden, WC2E 9AB.",,,"Mon-Fri 8am-6pm, Sat 9am-6.30pm, Sun 12pm-6pm. Read review Advertising 11. The Fields Beneath Caf√©s Kentish Town price 1 of 4 4 out of 5 stars Recommended",https://www.timeout.com/profile/leonie-cooper
"A tiny neighbourhood hangout in Kentish Town, with a fully plant-based menu.","A tiny neighbourhood hangout in Kentish Town, with a fully plant-based menu.","52a Prince of Wales Road, Kentish Town, NW5 3LN.",,,"Mon-Fri 7.30pm-4pm, Sat 8am-5pm, Sun 8.30am-4pm. Read review 12. The Copper Tea Tea rooms New Cross 4 out of 5 stars Recommended Kyoko Sato",https://www.timeout.com/profile/leonie-cooper
